GLOBALSTAR M057         
1 25943U 99058A   25276.32380111 -.00000078  00000+0  13512-3 0  9995
2 25943  52.0006  41.3090 0002194 220.4505 139.6181 12.24827335180183
GLOBALSTAR M059         
1 25944U 99058B   25276.30278560 -.00000054  00000+0  39506-3 0  9993
2 25944  52.0009 274.6857 0000313 121.6645 339.5595 11.99988657587027
GLOBALSTAR M056         
1 25945U 99058C   25276.28757613 -.00000112  00000+0 -28166-3 0  9998
2 25945  51.9953 273.9143 0001119  41.0076  65.3765 12.04779245175655
GLOBALSTAR M031         
1 25946U 99058D   25276.10783419 -.00000016  00000+0  75850-3 0  9997
2 25946  51.9946 160.2703 0002159  50.2392  97.3583 12.16040111177679
GLOBALSTAR M039         
1 25961U 99062A   25276.24564215 -.00000076  00000+0  15521-3 0  9990
2 25961  51.9847 299.5912 0002434 222.2297 137.8382 12.62333014193869
GLOBALSTAR M034         
1 25962U 99062B   25275.94358905 -.00000035  00000+0  73087-3 0  9990
2 25962  51.9858  91.2794 0013268 243.2233 289.0002 11.79448841151109
GLOBALSTAR M029         
1 25963U 99062C   25276.16702884 -.00000060  00000+0  31979-3 0  9997
2 25963  51.9789 162.9954 0002589 350.5721 172.3509 11.99901731182086
GLOBALSTAR M061         
1 25964U 99062D   25276.32512498 -.00000082  00000+0 -34610-4 0  9997
2 25964  51.9787 275.7625 0005832 166.7696 206.0709 11.76777019133915
